{
  "type": "FeatureCollection",
  "features": [
    {
      "type": "Feature",
      "properties": {
        "norad_id": 37717,
        "name": "FENGYUN 1C DEB",
        "group": "fengyun-1c-debris",
        "lat": -79.66622025237662,
        "lon": 77.89658530234172,
        "alt_km": 629.8598906082907,
        "timestamp": "2025-12-24T05:51:19.898223+00:00",
        "meta_object_name": "FENGYUN 1C DEB",
        "meta_object_id": "1999-025EMJ",
        "meta_epoch": "2025-12-15T15:45:42.031008",
        "meta_mean_motion": 14.94137729,
        "meta_eccentricity": 0.0058722,
        "meta_inclination": 98.7255,
        "meta_ra_of_asc_node": 305.7435,
        "meta_arg_of_pericenter": 93.683,
        "meta_mean_anomaly": 83.3944,
        "meta_ephemeris_type": 0,
        "meta_classification_type": "U",
        "meta_norad_cat_id": 37717,
        "meta_element_set_no": 999,
        "meta_rev_at_epoch": 89441,
        "meta_bstar": 0.0018768118,
        "meta_mean_motion_dot": 0.00020752,
        "meta_mean_motion_ddot": 0,
        "tle_line1": "1 37717U 99025EMJ 25349.65673647  .00020752  00000+0  18768-2 0  9994",
        "tle_line2": "2 37717  98.7255 305.7435 0058722  93.6830  83.3944 14.94137729894417"
      },
      "geometry": {
        "type": "Point",
        "coordinates": [
          77.89658530234172,
          -79.66622025237662
        ]
      }
    },
    {
      "type": "Feature",
      "properties": {
        "norad_id": 37719,
        "name": "FENGYUN 1C DEB",
        "group": "fengyun-1c-debris",
        "lat": 55.694008281673575,
        "lon": -139.96481313576024,
        "alt_km": 706.3508939979047,
        "timestamp": "2025-12-24T05:51:19.898233+00:00",
        "meta_object_name": "FENGYUN 1C DEB",
        "meta_object_id": "1999-025EML",
        "meta_epoch": "2025-12-21T08:06:10.221120",
        "meta_mean_motion": 14.56171039,
        "meta_eccentricity": 0.00438458,
        "meta_inclination": 99.5008,
        "meta_ra_of_asc_node": 22.5212,
        "meta_arg_of_pericenter": 233.5664,
        "meta_mean_anomaly": 142.7059,
        "meta_ephemeris_type": 0,
        "meta_classification_type": "U",
        "meta_norad_cat_id": 37719,
        "meta_element_set_no": 999,
        "meta_rev_at_epoch": 364,
        "meta_bstar": 0.0012070078,
        "meta_mean_motion_dot": 5.344e-05,
        "meta_mean_motion_ddot": 0,
        "tle_line1": "1 37719U 99025EML 25355.33761830  .00005344  00000+0  12070-2 0  9990",
        "tle_line2": "2 37719  99.5008  22.5212 0043845 233.5664 142.7059 14.56171039  3645"
      },
      "geometry": {
        "type": "Point",
        "coordinates": [
          -139.96481313576024,
          55.694008281673575
        ]
      }
    },
    {
      "type": "Feature",
      "properties": {
        "norad_id": 37902,
        "name": "FENGYUN 1C DEB",
        "group": "fengyun-1c-debris",
        "lat": 74.96438569048134,
        "lon": -177.58233778315275,
        "alt_km": 1280.841378809374,
        "timestamp": "2025-12-24T05:51:19.898243+00:00",
        "meta_object_name": "FENGYUN 1C DEB",
        "meta_object_id": "1999-025ENB",
        "meta_epoch": "2025-12-07T14:03:14.833440",
        "meta_mean_motion": 13.52640367,
        "meta_eccentricity": 0.03237878,
        "meta_inclination": 98.6837,
        "meta_ra_of_asc_node": 202.4677,
        "meta_arg_of_pericenter": 320.2654,
        "meta_mean_anomaly": 37.5166,
        "meta_ephemeris_type": 0,
        "meta_classification_type": "U",
        "meta_norad_cat_id": 37902,
        "meta_element_set_no": 999,
        "meta_rev_at_epoch": 62907,
        "meta_bstar": 0.003775391,
        "meta_mean_motion_dot": 3.447e-05,
        "meta_mean_motion_ddot": 0,
        "tle_line1": "1 37902U 99025ENB 25341.58558835  .00003447  00000+0  37754-2 0  9993",
        "tle_line2": "2 37902  98.6837 202.4677 0323787 320.2654  37.5166 13.52640367629073"
      },
      "geometry": {
        "type": "Point",
        "coordinates": [
          -177.58233778315275,
          74.96438569048134
        ]
      }
    },
    {
      "type": "Feature",
      "properties": {
        "norad_id": 37906,
        "name": "FENGYUN 1C DEB",
        "group": "fengyun-1c-debris",
        "lat": 25.875966984850194,
        "lon": -136.00765315384552,
        "alt_km": 1068.171560653649,
        "timestamp": "2025-12-24T05:51:19.898252+00:00",
        "meta_object_name": "FENGYUN 1C DEB",
        "meta_object_id": "1999-025ENF",
        "meta_epoch": "2025-12-22T20:57:13.813056",
        "meta_mean_motion": 13.80802468,
        "meta_eccentricity": 0.0162452,
        "meta_inclination": 99.5998,
        "meta_ra_of_asc_node": 37.8911,
        "meta_arg_of_pericenter": 1.7635,
        "meta_mean_anomaly": 180.0694,
        "meta_ephemeris_type": 0,
        "meta_classification_type": "U",
        "meta_norad_cat_id": 37906,
        "meta_element_set_no": 999,
        "meta_rev_at_epoch": 59595,
        "meta_bstar": 0.00062758,
        "meta_mean_motion_dot": 6.83e-06,
        "meta_mean_motion_ddot": 0,
        "tle_line1": "1 37906U 99025ENF 25356.87307654  .00000683  00000+0  62758-3 0  9998",
        "tle_line2": "2 37906  99.5998  37.8911 0162452   1.7635 180.0694 13.80802468595958"
      },
      "geometry": {
        "type": "Point",
        "coordinates": [
          -136.00765315384552,
          25.875966984850194
        ]
      }
    },
    {
      "type": "Feature",
      "properties": {
        "norad_id": 37907,
        "name": "FENGYUN 1C DEB",
        "group": "fengyun-1c-debris",
        "lat": 64.18340394257258,
        "lon": 92.28632461249967,
        "alt_km": 804.4935352799175,
        "timestamp": "2025-12-24T05:51:19.898263+00:00",
        "meta_object_name": "FENGYUN 1C DEB",
        "meta_object_id": "1999-025ENG",
        "meta_epoch": "2025-12-18T02:47:52.898208",
        "meta_mean_motion": 14.23621509,
        "meta_eccentricity": 0.00633304,
        "meta_inclination": 99.0798,
        "meta_ra_of_asc_node": 105.2668,
        "meta_arg_of_pericenter": 171.0108,
        "meta_mean_anomaly": 189.2219,
        "meta_ephemeris_type": 0,
        "meta_classification_type": "U",
        "meta_norad_cat_id": 37907,
        "meta_element_set_no": 999,
        "meta_rev_at_epoch": 83349,
        "meta_bstar": 0.0022047538,
        "meta_mean_motion_dot": 5.087e-05,
        "meta_mean_motion_ddot": 0,
        "tle_line1": "1 37907U 99025ENG 25352.11658447  .00005087  00000+0  22048-2 0  9991",
        "tle_line2": "2 37907  99.0798 105.2668 0063330 171.0108 189.2219 14.23621509833493"
      },
      "geometry": {
        "type": "Point",
        "coordinates": [
          92.28632461249967,
          64.18340394257258
        ]
      }
    },
    {
      "type": "Feature",
      "properties": {
        "norad_id": 37908,
        "name": "FENGYUN 1C DEB",
        "group": "fengyun-1c-debris",
        "lat": 18.9468154289274,
        "lon": 27.68311624353158,
        "alt_km": 783.3094507667756,
        "timestamp": "2025-12-24T05:51:19.898273+00:00",
        "meta_object_name": "FENGYUN 1C DEB",
        "meta_object_id": "1999-025ENH",
        "meta_epoch": "2025-12-21T07:33:41.047488",
        "meta_mean_motion": 14.36621553,
        "meta_eccentricity": 0.00747559,
        "meta_inclination": 99.1512,
        "meta_ra_of_asc_node": 27.7446,
        "meta_arg_of_pericenter": 132.8804,
        "meta_mean_anomaly": 227.869,
        "meta_ephemeris_type": 0,
        "meta_classification_type": "U",
        "meta_norad_cat_id": 37908,
        "meta_element_set_no": 999,
        "meta_rev_at_epoch": 64184,
        "meta_bstar": 0.00036301437,
        "meta_mean_motion_dot": 1.053e-05,
        "meta_mean_motion_ddot": 0,
        "tle_line1": "1 37908U 99025ENH 25355.31505842  .00001053  00000+0  36301-3 0  9994",
        "tle_line2": "2 37908  99.1512  27.7446 0074755 132.8804 227.8690 14.36621553641843"
      },
      "geometry": {
        "type": "Point",
        "coordinates": [
          27.68311624353158,
          18.9468154289274
        ]
      }
    },
    {
      "type": "Feature",
      "properties": {
        "norad_id": 37912,
        "name": "FENGYUN 1C DEB",
        "group": "fengyun-1c-debris",
        "lat": 49.42361312946005,
        "lon": -43.75745140541497,
        "alt_km": 787.6856594482397,
        "timestamp": "2025-12-24T05:51:19.898283+00:00",
        "meta_object_name": "FENGYUN 1C DEB",
        "meta_object_id": "1999-025ENM",
        "meta_epoch": "2025-12-17T20:31:02.815680",
        "meta_mean_motion": 14.1153782,
        "meta_eccentricity": 0.00921589,
        "meta_inclination": 99.2285,
        "meta_ra_of_asc_node": 320.6183,
        "meta_arg_of_pericenter": 45.8497,
        "meta_mean_anomaly": 315.0203,
        "meta_ephemeris_type": 0,
        "meta_classification_type": "U",
        "meta_norad_cat_id": 37912,
        "meta_element_set_no": 999,
        "meta_rev_at_epoch": 77360,
        "meta_bstar": 0.0021693094,
        "meta_mean_motion_dot": 4.053e-05,
        "meta_mean_motion_ddot": 0,
        "tle_line1": "1 37912U 99025ENM 25351.85489370  .00004053  00000+0  21693-2 0  9991",
        "tle_line2": "2 37912  99.2285 320.6183 0092158  45.8497 315.0203 14.11537820773603"
      },
      "geometry": {
        "type": "Point",
        "coordinates": [
          -43.75745140541497,
          49.42361312946005
        ]
      }
    }
  ]
}